ZHONGXING-26            
1 55686U 23023A   24290.84803884 -.00000355  00000+0  00000+0 0  9992
2 55686   0.0702  73.3264 0001059  76.5856 306.3778  1.00265790  6132
LUCH-5X (OLYMP-K 2)     
1 55841U 23031A   24290.83838628 -.00000011  00000+0  00000+0 0  9996
2 55841   0.0300 263.7690 0001691 355.2477  67.7448  1.00274644  5842
GAOFEN-13 02            
1 55912U 23036A   24290.85455706 -.00000224  00000+0  00000+0 0  9990
2 55912   1.7700 309.1596 0002210   0.9355 171.5681  1.00268445  5991
SES-18                  
1 55970U 23038A   24290.38904932 -.00000102  00000+0  00000+0 0  9999
2 55970   0.0266 259.1244 0002983 339.6634 183.5833  1.00270518  5993
SES-19                  
1 55971U 23038B   24290.45466045  .00000086  00000+0  00000+0 0  9996
2 55971   0.0221 277.3739 0001650 283.1581 213.7189  1.00270332  5961
INTELSAT 40E (IS-40E)   
1 56174U 23052A   24290.82032370 -.00000175  00000+0  00000+0 0  9999
2 56174   0.0100 207.8836 0002442 350.9163  31.3542  1.00270828  5729
VIASAT-3                
1 56370U 23060A   24289.60561455 -.00000187  00000+0  00000+0 0  9994
2 56370   0.0213 249.4478 0000055 185.0165  79.2879  1.00272020  5330
ARCTURUS                
1 56371U 23060B   24290.85402476 -.00000117  00000+0  00000+0 0  9994
2 56371   1.1963  87.2742 0000515 336.4423 347.6012  1.00272133  5355
GS-1                    
1 56372U 23060C   24290.62827236 -.00000141  00000+0  00000+0 0  9992
2 56372   1.1481  86.6063 0002803 254.4841 351.8716  1.00240951  1431
BEIDOU-3 G4             
1 56564U 23066A   24290.87027140 -.00000115  00000+0  00000+0 0  9995
2 56564   1.8250 288.6914 0005597 243.7399 326.7674  1.00272015  5294
ARABSAT-7B (BADR-8)     
1 56757U 23075A   24290.36577250  .00000143  00000+0  00000+0 0  9995
2 56757   0.0732  25.3630 0001811 316.0446 201.6677  1.00271520  5033
IRNSS-1J (NVS-01)       
1 56759U 23076A   24290.86418977 -.00000343  00000+0  00000+0 0  9996
2 56759   3.6903 263.4442 0007016 344.3346 218.7243  1.00267786  5011
NUSANTARA TIGA (SATRIA) 
1 57045U 23086A   24291.15340876 -.00000236  00000+0  00000+0 0  9992
2 57045   0.0504  42.3829 0003702 243.6585 301.3562  1.00269800  4959
H2SAT (HEINRICH HERTZ)  
1 57213U 23093A   24290.76715289 -.00000001  00000+0  00000+0 0  9997
2 57213   0.0185 206.9393 0001539  16.1474  79.3291  1.00270152  4819
SYRACUSE 4B             
1 57214U 23093B   24290.83725684 -.00000056  00000+0  00000+0 0  9996
2 57214   0.0167 235.8445 0000274  25.2954  59.5383  1.00270450   851
JUPITER 3 (ECHOSTAR 24) 
1 57479U 23108A   24290.19450631 -.00000151  00000+0  00000+0 0  9998
2 57479   0.0179 208.7407 0001182   1.1041 150.1484  1.00269690  4547
GALAXY 37 (G-37)        
1 57493U 23112A   24291.02778557  .00000046  00000+0  00000+0 0  9994
2 57493   0.0128 289.6850 0002247 288.8750  50.5020  1.00273450  4426
LUDI TANCE-4 01A        
1 57624U 23120A   24290.78478962 -.00000197  00000+0  00000+0 0  9996
2 57624  15.6164 208.8567 0002348  32.1250 157.0765  1.00270131  4443
TJS-10                  
1 58204U 23169A   24290.87287781  .00000004  00000+0  00000+0 0  9997
2 58204   0.9644  87.5400 0005196 145.4064 280.3009  1.00276129  3444
ZHONGXING-6E            
1 58253U 23172A   24290.84116719 -.00000363  00000+0  00000+0 0  9993
2 58253   0.0376 265.6385 0002912 291.5440 246.9680  1.00267161  3557
YAOGAN-41               
1 58582U 23197A   24290.84473365 -.00000371  00000+0  00000+0 0  9997
2 58582   4.3458 307.9195 0014666 195.3725 309.8426  1.00268413  3227
OVZON-3                 
1 58698U 24003A   24291.06487764  .00000050  00000+0  00000+0 0  9998
2 58698   0.0095 175.3549 0001543  80.4117 213.3862  1.00272559  3133
INSAT-3DS               
1 58990U 24033A   24290.89424310 -.00000158  00000+0  00000+0 0  9994
2 58990   0.0475  72.2417 0001648 139.0893 218.6109  1.00271712 40961
MERAH PUTIH 2           
1 58995U 24035A   24290.83620288 -.00000359  00000+0  00000+0 0  9990
2 58995   0.0175 266.7381 0001772 300.9679 232.1343  1.00270575  2484
TJS-11                  
1 59020U 24037A   24290.84296580 -.00000378  00000+0  00000+0 0  9998
2 59020   5.1250 321.8140 0006178 269.7632 217.9591  1.00266216  2489
HULIANWAN GAOGUI-01 (H*)
1 59069U 24040A   24290.27329028  .00000154  00000+0  00000+0 0  9997
2 59069   0.0233  10.6307 0006775 317.2268 189.4604  1.00271560  1229
EUTELSAT 36D            
1 59346U 24059A   24291.13938451  .00000155  00000+0  00000+0 0  9998
2 59346   0.0144 256.5765 0000049  24.4683 191.1483  1.00269895  2047
PAKSAT-MM1              
1 59915U 24104A   24290.70286138  .00000152  00000+0  00000+0 0  9998
2 59915   0.0108 180.5735 0002511 118.5289  17.8744  1.00274024  1497
GOES 19                 
1 60133U 24119A   24290.89225215 -.00000184  00000+0  00000+0 0  9993
2 60133   0.0457  51.8271 0000582  61.0354 144.7711  1.00271434   860
ZHONGXING-3A            
1 60179U 24122A   24291.07313127 -.00000315  00000+0  00000+0 0  9994
2 60179   0.0144  34.7518 0003467 203.9093 275.3180  1.00270007  1226
TURKSAT 6A              
1 60233U 24127A   24290.78934953  .00000113  00000+0  00000+0 0  9998
2 60233   0.0306 283.1075 0004026 322.6331 114.2473  1.00274540   918
HULIANWAN GAOGUI-02 (H*)
1 60327U 24135A   24290.86888131 -.00000175  00000+0  00000+0 0  9995
2 60327   0.0080   9.6080 0002881 234.8579 247.2980  1.00269291  1405
STARLETTE               
1 07646U 75010A   24290.60139009 -.00000084  00000+0  44945-4 0  9993
2 07646  49.8262 346.7743 0205733 212.5537 146.2530 13.82335157510358
LAGEOS 1                
1 08820U 76039A   24290.63024387  .00000022  00000+0  00000+0 0  9995
2 08820 109.8567 330.9009 0043992  72.4463  85.4784  6.38664961874276
AJISAI (EGS)            
1 16908U 86061A   24290.89847171 -.00000097  00000+0  59302-5 0  9997
2 16908  50.0083 217.8592 0011429  71.7558  38.3832 12.44508231404641
COSMOS 1989 (ETALON 1)  
1 19751U 89001C   24289.83438385  .00000064  00000+0  00000+0 0  9996
2 19751  64.6114  93.0906 0023736 215.9806 156.2320  2.13156066278383
COSMOS 2024 (ETALON 2)  
1 20026U 89039C   24291.21735608 -.00000035  00000+0  00000+0 0  9996
2 20026  65.2794 331.4013 0019781 216.7316 189.8855  2.13204317275531
LAGEOS 2                
1 22195U 92070B   24291.19079988 -.00000009  00000+0  00000+0 0  9994
2 22195  52.6579 290.9066 0137498 281.0120  74.4801  6.47293790756259
STELLA                  
1 22824U 93061B   24291.20136231  .00000049  00000+0  38484-4 0  9996
2 22824  98.8638 339.3002 0006020 195.1418 262.2954 14.27438049618196
LARETS                  
1 27944U 03042F   24291.14691090  .00000482  00000+0  10226-3 0  9990
2 27944  98.3343  72.5673 0013232 131.0926 229.1421 14.63615158124492
LARES                   
1 38077U 12006A   24290.28658850 -.00000055  00000+0 -10019-3 0  9998
2 38077  69.4890 252.3017 0011402 259.6237 100.3504 12.54931805580672
LARES-2                 
1 53105U 22080A   24290.00259047  .00000028  00000+0  00000+0 0  9998
2 53105  70.1363 154.2665 0004874 110.8435 249.2978  6.38965207 52745
COSMOS 2433 (720)       
1 32275U 07052A   24290.28766967 -.00000035  00000+0  00000+0 0  9998
2 32275  65.8861 336.3505 0005565 239.4491 120.5719  2.13103974132082
COSMOS 2432 (719)       
1 32276U 07052B   24290.52466001 -.00000036  00000+0  00000+0 0  9993
2 32276  65.9011 336.4587 0010058 308.8708 178.7983  2.13103023132114
COSMOS 2434 (721)       
1 32393U 07065A   24290.67316454  .00000011  00000+0  00000+0 0  9991
2 32393  64.3178 212.4610 0002210  64.2480 123.6538  2.13101207130803
COSMOS 2436 (723)       
1 32395U 07065C   24290.49493687  .00000009  00000+0  00000+0 0  9994
2 32395  64.3264 212.5327 0016804   0.4913 185.5776  2.13099955130755
COSMOS 2456 (730)       
1 36111U 09070A   24289.33750788  .00000067  00000+0  00000+0 0  9995
2 36111  64.6709  91.8347 0001347 331.2279  66.2977  2.13103663115436
COSMOS 2457 (733)       
1 36112U 09070B   24290.58047528  .00000051  00000+0  00000+0 0  9999
2 36112  64.6561  91.6480 0006270 144.8398 259.2704  2.13101097115463
COSMOS 2460 (732)       
1 36402U 10007C   24290.52688449 -.00000034  00000+0  00000+0 0  9992
2 36402  65.7400 334.9869 0002598 241.7563 114.6907  2.13106121113755
COSMOS 2476 (744)       
1 37867U 11064A   24289.43608612  .00000070  00000+0  00000+0 0  9993
2 37867  64.9416  93.5109 0022006 230.3492 154.6704  2.13101514100773
COSMOS 2477 (745)       
1 37868U 11064B   24289.73810398  .00000067  00000+0  00000+0 0  9999
2 37868  64.9490  93.5744 0019159 230.4722 204.9659  2.13102968100775
COSMOS 2475 (743)       
1 37869U 11064C   24290.16993925  .00000061  00000+0  00000+0 0  9991
2 37869  64.9561  93.5758 0023471 247.5655 117.0382  2.13101697100793
COSMOS 2485 (747)       
1 39155U 13019A   24289.34534223  .00000073  00000+0  00000+0 0  9996
2 39155  65.0982  94.1235 0022473 226.3837 133.4577  2.13101698 89286
COSMOS 2492 (754)       
1 39620U 14012A   24290.23908220 -.00000033  00000+0  00000+0 0  9996
2 39620  65.6210 334.5559 0013154 308.6066  51.3515  2.13103062 82265
COSMOS 2500 (755)       
1 40001U 14032A   24289.47834969 -.00000029  00000+0  00000+0 0  9990
2 40001  65.5583 334.3774 0008983 212.5967 147.4235  2.13105799 80461
COSMOS 2501 (702K)      
1 40315U 14075A   24289.26355053  .00000002  00000+0  00000+0 0  9994
2 40315  63.6187 211.5046 0019982 208.4573 151.4460  2.13101302 76853
COSMOS 2514 (751)       
1 41330U 16008A   24291.12350271 -.00000038  00000+0  00000+0 0  9995
2 41330  65.3514 333.8002 0013040 216.3467 143.6382  2.13102502 67661
COSMOS 2522 (752)       
1 42939U 17055A   24289.08625154  .00000000  00000+0  00000+0 0  9999
2 42939  64.0800 212.6702 0008180 238.5437 121.3864  2.13101895 54976
COSMOS 2527 (756)       
1 43508U 18053A   24289.98422661  .00000066  00000+0  00000+0 0  9990
2 43508  65.2582  94.2789 0007682 213.6634 146.3119  2.13102222 49291
